NORAD_CAT_ID,OBJECT_NAME,OBJECT_TYPE,EPOCH,MEAN_MOTION,ECCENTRICITY,INCLINATION,RA_OF_ASC_NODE,ARG_OF_PERICENTER,MEAN_ANOMALY,BSTAR,MEAN_MOTION_DOT,MEAN_MOTION_DDOT,TLE_LINE0,TLE_LINE1,TLE_LINE2,SEMIMAJOR_AXIS,PERIOD,APOGEE,PERIGEE,DECAYED
53907.0,STARLINK-5063,PAYLOAD,2023-06-12 14:56:19,15.08835906,0.0001368,53.216,137.6456,91.1317,268.9832,-1.2931e-05,-4.94e-06,0.0,0 STARLINK-5063,1 53907U 22119X   23163.62244914 -.00000494  00000-0 -12931-4 0  9995,2 53907  53.2160 137.6456 0001368  91.1317 268.9832 15.08835906 40147,6917.893,95.438,540.704,538.812,0.0
53907.0,STARLINK-5063,PAYLOAD,2023-06-12 21:17:52,15.08833862,0.0001327,53.2161,136.457,90.026,270.0884,2.2179e-05,6.5e-07,0.0,0 STARLINK-5063,1 53907U 22119X   23163.88741001  .00000065  00000-0  22179-4 0  9999,2 53907  53.2161 136.4570 0001327  90.0260 270.0884 15.08833862 40603,6917.899,95.438,540.682,538.846,0.0
53907.0,STARLINK-5063,PAYLOAD,2023-06-13 06:50:11,15.0883341,0.0001296,53.216,134.6732,89.1791,270.9349,1.2654e-05,-8.7e-07,0.0,0 STARLINK-5063,1 53907U 22119X   23164.28485186 -.00000087  00000-0  12654-4 0  9995,2 53907  53.2160 134.6732 0001296  89.1791 270.9349 15.08833410 40665,6917.901,95.438,540.662,538.869,0.0
53907.0,STARLINK-5063,PAYLOAD,2023-06-13 22:44:02,15.08833581,0.0001193,53.2156,131.6992,93.079,267.0339,-1.3648e-05,-5.05e-06,0.0,0 STARLINK-5063,1 53907U 22119X   23164.94725512 -.00000505  00000-0 -13648-4 0  9998,2 53907  53.2156 131.6992 0001193  93.0790 267.0339 15.08833581 40344,6917.9,95.438,540.59,538.94,0.0
53907.0,STARLINK-5063,PAYLOAD,2023-06-14 06:40:58,15.08837221,0.0001192,53.2156,130.2123,89.7855,270.3274,1.6966e-05,-1.8e-07,0.0,0 STARLINK-5063,1 53907U 22119X   23165.27845292 -.00000018  00000-0  16966-4 0  9997,2 53907  53.2156 130.2123 0001192  89.7855 270.3274 15.08837221 40810,6917.889,95.438,540.578,538.929,0.0
53907.0,STARLINK-5063,PAYLOAD,2023-06-14 20:59:26,15.08834994,0.0001154,53.216,127.5356,84.6505,275.4618,1.7039e-05,-1.7e-07,0.0,0 STARLINK-5063,1 53907U 22119X   23165.87461614 -.00000017  00000-0  17039-4 0  9996,2 53907  53.2160 127.5356 0001154  84.6505 275.4618 15.08834994 40908,6917.896,95.438,540.559,538.962,0.0
53907.0,STARLINK-5063,PAYLOAD,2023-06-15 04:56:22,15.08839676,0.0001173,53.216,126.0489,85.5884,274.5243,5.3984e-05,5.71e-06,0.0,0 STARLINK-5063,1 53907U 22119X   23166.20581246  .00000571  00000-0  53984-4 0  9991,2 53907  53.2160 126.0489 0001173  85.5884 274.5243 15.08839676 40535,6917.881,95.438,540.558,538.935,0.0
53907.0,STARLINK-5063,PAYLOAD,2023-06-16 06:22:32,15.08845214,0.000123,53.2158,121.2905,90.1677,269.9456,8.8864e-05,1.127e-05,0.0,0 STARLINK-5063,1 53907U 22119X   23167.26564893  .00001127  00000-0  88864-4 0  9990,2 53907  53.2158 121.2905 0001230  90.1677 269.9456 15.08845214 40694,6917.864,95.437,540.58,538.879,0.0
53907.0,STARLINK-5063,PAYLOAD,2023-06-16 14:19:27,15.08852994,0.0001235,53.2161,119.8041,90.9317,269.1816,0.00014232,1.979e-05,0.0,0 STARLINK-5063,1 53907U 22119X   23167.59684053  .00001979  00000-0  14232-3 0  9999,2 53907  53.2161 119.8041 0001235  90.9317 269.1816 15.08852994 40747,6917.841,95.437,540.56,538.851,0.0
53907.0,STARLINK-5063,PAYLOAD,2023-06-17 03:02:32,15.0884995,0.0002216,53.2164,117.425,91.07,269.0546,7.4185e-05,8.93e-06,0.0,0 STARLINK-5063,1 53907U 22119X   23168.12676562  .00000893  00000-0  74185-4 0  9993,2 53907  53.2164 117.4250 0002216  91.0700 269.0546 15.08849950 40820,6917.85,95.437,541.248,538.182,0.0
53907.0,STARLINK-5063,PAYLOAD,2023-06-17 14:10:15,15.08831448,0.0001154,53.2164,115.3435,95.6954,264.417,-2.9515e-05,-7.57e-06,0.0,0 STARLINK-5063,1 53907U 22119X   23168.59046065 -.00000757  00000-0 -29515-4 0  9991,2 53907  53.2164 115.3435 0001154  95.6954 264.4170 15.08831448 40895,6917.907,95.438,540.57,538.973,0.0
53907.0,STARLINK-5063,PAYLOAD,2023-06-17 23:42:36,15.08818816,0.0001246,53.218,113.5622,90.3182,269.7952,-0.00014146,-2.537e-05,0.0,0 STARLINK-5063,1 53907U 22119X   23168.98791864 -.00002537  00000-0 -14146-3 0  9999,2 53907  53.2180 113.5622 0001246  90.3182 269.7952 15.08818816 40955,6917.945,95.439,540.672,538.948,0.0
53907.0,STARLINK-5063,PAYLOAD,2023-06-18 06:04:08,15.08827365,0.000125,53.2161,112.3692,98.8858,261.2276,-8.7087e-05,-1.673e-05,0.0,0 STARLINK-5063,1 53907U 22119X   23169.25287354 -.00001673  00000-0 -87087-4 0  9999,2 53907  53.2161 112.3692 0001250  98.8858 261.2276 15.08827365 40995,6917.919,95.438,540.649,538.919,0.0
53907.0,STARLINK-5063,PAYLOAD,2023-06-19 05:54:54,15.0884238,0.0001164,53.2159,107.9095,94.338,265.7745,0.00012541,1.709e-05,0.0,0 STARLINK-5063,1 53907U 22119X   23170.24646004  .00001709  00000-0  12541-3 0  9991,2 53907  53.2159 107.9095 0001164  94.3380 265.7745 15.08842380 41146,6917.873,95.437,540.543,538.933,0.0
53907.0,STARLINK-5063,PAYLOAD,2023-06-20 12:07:14,15.08839006,0.0001001,53.2158,102.2615,86.807,273.3036,0.00015044,2.107e-05,0.0,0 STARLINK-5063,1 53907U 22119X   23171.50502331  .00002107  00000-0  15044-3 0  9999,2 53907  53.2158 102.2615 0001001  86.8070 273.3036 15.08839006 41759,6917.883,95.438,540.441,539.056,0.0
53907.0,STARLINK-5063,PAYLOAD,2023-06-21 05:36:27,15.08854464,0.0001149,53.2167,98.9897,97.0139,263.0984,5.8839e-06,-1.94e-06,0.0,0 STARLINK-5063,1 53907U 22119X   23172.23365550 -.00000194  00000-0  58839-5 0  9996,2 53907  53.2167  98.9897 0001149  97.0139 263.0984 15.08854464 41444,6917.836,95.437,540.496,538.906,0.0
53907.0,STARLINK-5063,PAYLOAD,2023-06-21 11:58:00,15.08845878,9.93e-05,53.2156,97.798,90.3661,269.7445,-3.3358e-05,-8.19e-06,0.0,0 STARLINK-5063,1 53907U 22119X   23172.49862040 -.00000819  00000-0 -33358-4 0  9993,2 53907  53.2156  97.7980 0000993  90.3661 269.7445 15.08845878 41909,6917.862,95.437,540.414,539.04,0.0
53907.0,STARLINK-5063,PAYLOAD,2023-06-22 02:16:29,15.08838307,0.0001192,53.2168,95.1273,97.6569,262.4559,-7.6855e-05,-1.511e-05,0.0,0 STARLINK-5063,1 53907U 22119X   23173.09478804 -.00001511  00000-0 -76855-4 0  9990,2 53907  53.2168  95.1273 0001192  97.6569 262.4559 15.08838307 41576,6917.886,95.438,540.575,538.926,0.0
53907.0,STARLINK-5063,PAYLOAD,2023-06-23 02:07:15,15.08849678,0.0001119,53.2164,90.6628,96.127,263.985,4.723e-05,4.64e-06,0.0,0 STARLINK-5063,1 53907U 22119X   23174.08837603  .00000464  00000-0  47230-4 0  9995,2 53907  53.2164  90.6628 0001119  96.1270 263.9850 15.08849678 41728,6917.851,95.437,540.49,538.942,0.0
53907.0,STARLINK-5063,PAYLOAD,2023-06-23 18:01:07,15.08836725,0.0001352,53.2156,87.6921,78.2696,281.8448,7.1647e-05,8.52e-06,0.0,0 STARLINK-5063,1 53907U 22119X   23174.75078381  .00000852  00000-0  71647-4 0  9999,2 53907  53.2156  87.6921 0001352  78.2696 281.8448 15.08836725 41825,6917.89,95.438,540.691,538.82,0.0
53907.0,STARLINK-5063,PAYLOAD,2023-06-25 03:24:13,15.0884866,0.0001162,53.2159,81.4432,111.4125,248.6991,-2.325e-07,-2.92e-06,0.0,0 STARLINK-5063,1 53907U 22119X   23176.14181743 -.00000292  00000-0 -23250-6 0  9990,2 53907  53.2159  81.4432 0001162 111.4125 248.6991 15.08848660 42032,6917.854,95.437,540.523,538.915,0.0
53907.0,STARLINK-5063,PAYLOAD,2023-06-25 11:21:09,15.08840425,0.000138,53.216,79.958,87.6129,272.5021,-0.00010037,-1.885e-05,0.0,0 STARLINK-5063,1 53907U 22119X   23176.47302582 -.00001885  00000-0 -10037-3 0  9997,2 53907  53.2160  79.9580 0001380  87.6129 272.5021 15.08840425 42086,6917.879,95.438,540.699,538.789,0.0
53907.0,STARLINK-5063,PAYLOAD,2023-06-26 06:25:46,15.08843086,0.0001298,53.217,76.3886,83.9161,276.1979,1.1069e-05,-1.12e-06,0.0,0 STARLINK-5063,1 53907U 22119X   23177.26790193 -.00000112  00000-0  11069-4 0  9992,2 53907  53.2170  76.3886 0001298  83.9161 276.1979 15.08843086 42202,6917.871,95.437,540.634,538.838,0.0
53907.0,STARLINK-5063,PAYLOAD,2023-06-26 20:44:15,15.08834151,9.56e-05,53.2167,73.7119,85.1926,274.9175,1.4338e-05,-6e-07,0.0,0 STARLINK-5063,1 53907U 22119X   23177.86406803 -.00000060  00000-0  14338-4 0  9994,2 53907  53.2167  73.7119 0000956  85.1926 274.9175 15.08834151 42297,6917.898,95.438,540.425,539.102,0.0
53907.0,STARLINK-5063,PAYLOAD,2023-06-28 02:56:34,15.08841049,0.0001208,53.2172,68.0626,79.9235,280.1893,4.2916e-05,3.95e-06,0.0,0 STARLINK-5063,1 53907U 22119X   23179.12262672  .00000395  00000-0  42916-4 0  9992,2 53907  53.2172  68.0626 0001208  79.9235 280.1893 15.08841049 42489,6917.877,95.437,540.578,538.907,0.0
53907.0,STARLINK-5063,PAYLOAD,2023-06-28 23:36:36,15.08833745,0.0001129,53.2171,64.1992,90.7696,269.3426,3.5043e-05,2.7e-06,0.0,0 STARLINK-5063,1 53907U 22119X   23179.98375463  .00000270  00000-0  35043-4 0  9994,2 53907  53.2171  64.1992 0001129  90.7696 269.3426 15.08833745 42615,6917.9,95.438,540.546,538.983,0.0
53907.0,STARLINK-5063,PAYLOAD,2023-06-30 15:21:14,15.08833834,0.0001133,53.2177,56.7636,90.3855,269.7267,2.3428e-05,8.5e-07,0.0,0 STARLINK-5063,1 53907U 22119X   23181.63975643  .00000085  00000-0  23428-4 0  9993,2 53907  53.2177  56.7636 0001133  90.3855 269.7267 15.08833834 42864,6917.899,95.438,540.548,538.98,0.0
53907.0,STARLINK-5063,PAYLOAD,2023-07-02 00:44:20,15.08838757,9.99e-05,53.2164,50.5182,76.3143,283.796,-9.3584e-06,-4.37e-06,0.0,0 STARLINK-5063,1 53907U 22119X   23183.03079685 -.00000437  00000-0 -93584-5 0  9994,2 53907  53.2164  50.5182 0000999  76.3143 283.7960 15.08838757 43070,6917.884,95.438,540.44,539.058,0.0
53907.0,STARLINK-5063,PAYLOAD,2023-07-03 00:35:07,15.08845936,0.0001168,53.2169,46.0572,83.9225,276.19,7.72e-05,9.41e-06,0.0,0 STARLINK-5063,1 53907U 22119X   23184.02438810  .00000941  00000-0  77200-4 0  9997,2 53907  53.2169  46.0572 0001168  83.9225 276.1900 15.08845936 43226,6917.862,95.437,540.535,538.919,0.0
53907.0,STARLINK-5063,PAYLOAD,2023-07-03 14:53:35,15.08836242,0.0001149,53.2167,43.3811,81.1068,279.0054,3.9752e-05,3.45e-06,0.0,0 STARLINK-5063,1 53907U 22119X   23184.62055516  .00000345  00000-0  39752-4 0  9999,2 53907  53.2167  43.3811 0001149  81.1068 279.0054 15.08836242 43316,6917.892,95.438,540.552,538.962,0.0
